NORAD_CAT_ID,OBJECT_NAME,OBJECT_TYPE,EPOCH,MEAN_MOTION,ECCENTRICITY,INCLINATION,RA_OF_ASC_NODE,ARG_OF_PERICENTER,MEAN_ANOMALY,BSTAR,MEAN_MOTION_DOT,MEAN_MOTION_DDOT,TLE_LINE0,TLE_LINE1,TLE_LINE2,SEMIMAJOR_AXIS,PERIOD,APOGEE,PERIGEE,DECAYED
49426.0,STARLINK-3114,PAYLOAD,2022-04-03 22:00:00,15.0882223,0.0001946,53.217,194.5419,34.2396,259.3061,-0.0013359,-0.00021476,0.0,0 STARLINK-3114,1 49426U 21104U   22093.91667824 -.00021476  00000-0 -13359-2 0  9997,2 49426  53.2170 194.5419 0001946  34.2396 259.3061 15.08822230  3566,6917.935,95.439,541.146,538.453,0.0
49426.0,STARLINK-3114,PAYLOAD,2022-04-04 14:00:01,15.08825331,0.0002093,53.217,191.5501,35.6274,281.0573,0.0011541,0.0001812,0.0,0 STARLINK-3114,1 49426U 21104U   22094.58334491  .00018120  00000-0  11541-2 0  9993,2 49426  53.2170 191.5501 0002093  35.6274 281.0573 15.08825331 23050,6917.925,95.438,541.238,538.342,0.0
49426.0,STARLINK-3114,PAYLOAD,2022-04-04 22:00:00,15.08885177,0.0002028,53.2168,190.053,33.1652,295.1152,-0.0033491,-0.00053262,0.0,0 STARLINK-3114,1 49426U 21104U   22094.91667824 -.00053262  00000-0 -33491-2 0  9995,2 49426  53.2168 190.0530 0002028  33.1652 295.1152 15.08885177  3606,6917.7419999999975,95.435,541.01,538.2040000000002,0.0
49426.0,STARLINK-3114,PAYLOAD,2022-04-05 14:00:01,15.08862805,0.0002099,53.2169,187.061,32.4341,319.138,-0.0021239,-0.00033953,0.0,0 STARLINK-3114,1 49426U 21104U   22095.58335648 -.00033953  00000-0 -21239-2 0  9997,2 49426  53.2169 187.0610 0002099  32.4341 319.1380 15.08862805  3565,6917.811,95.436,541.128,538.224,0.0
49426.0,STARLINK-3114,PAYLOAD,2022-04-05 16:00:00,15.08847963,0.0002113,53.2169,186.6872,31.2967,53.121,-0.0010661,-0.00017219,0.0,0 STARLINK-3114,1 49426U 21104U   22095.66667824 -.00017219  00000-0 -10661-2 0  9994,2 49426  53.2169 186.6872 0002113  31.2967  53.1210 15.08847963 23228,6917.856,95.437,541.183,538.259,0.0
49426.0,STARLINK-3114,PAYLOAD,2022-04-05 22:00:00,15.08850341,0.0002057,53.2168,185.5637,32.5534,330.5647,-0.0043076,-0.00068216,0.0,0 STARLINK-3114,1 49426U 21104U   22095.91667824 -.00068216  00000-0 -43076-2 0  9991,2 49426  53.2168 185.5637 0002057  32.5534 330.5647 15.08850341  3571,6917.849,95.437,541.137,538.2909999999998,0.0
49426.0,STARLINK-3114,PAYLOAD,2022-04-06 14:00:01,15.08817877,0.0002255,53.2172,182.5721,34.7995,351.4681,0.0016477,0.00026017,0.0,0 STARLINK-3114,1 49426U 21104U   22096.58334491  .00026017  00000-0  16477-2 0  9992,2 49426  53.2172 182.5721 0002255  34.7995 351.4681 15.08817877  3614,6917.948,95.439,541.373,538.253,0.0
49426.0,STARLINK-3114,PAYLOAD,2022-04-06 22:00:00,15.08864766,0.0002117,53.2171,181.0746,33.8201,4.0283,-0.0039936999999999,-0.00063334,0.0,0 STARLINK-3114,1 49426U 21104U   22096.91667824 -.00063334  00000-0 -39937-2 0  9999,2 49426  53.2171 181.0746 0002117  33.8201   4.0283 15.08864766 23419,6917.805,95.436,541.134,538.205,0.0
49426.0,STARLINK-3114,PAYLOAD,2022-04-07 14:00:01,15.08836619,0.0002219,53.2174,178.0831,31.8371,29.1951,-5.5955e-05,-1.179e-05,0.0,0 STARLINK-3114,1 49426U 21104U   22097.58334491 -.00001179  00000-0 -55955-4 0  9993,2 49426  53.2174 178.0831 0002219  31.8371  29.1951 15.08836619  3607,6917.891,95.438,541.2909999999998,538.221,0.0
49426.0,STARLINK-3114,PAYLOAD,2022-04-07 20:00:01,15.0886136,0.0002147,53.2171,176.9601,29.9714,309.761,-0.002548,-0.00040636,0.0,0 STARLINK-3114,1 49426U 21104U   22097.83334491 -.00040636  00000-0 -25480-2 0  9990,2 49426  53.2171 176.9601 0002147  29.9714 309.7610 15.08861360 23540,6917.815,95.436,541.165,538.195,0.0
49426.0,STARLINK-3114,PAYLOAD,2022-04-07 22:00:00,15.08846901,0.0002046,53.2173,176.5854,31.2123,41.425,-0.0010844,-0.00017509,0.0,0 STARLINK-3114,1 49426U 21104U   22097.91667824 -.00017509  00000-0 -10844-2 0  9999,2 49426  53.2173 176.5854 0002046  31.2123  41.4250 15.08846901  3571,6917.859,95.437,541.14,538.309,0.0
49426.0,STARLINK-3114,PAYLOAD,2022-04-08 06:00:00,15.0885013,0.0001984,53.2175,175.0887,34.2048,50.0242,0.0013923,0.00021946,0.0,0 STARLINK-3114,1 49426U 21104U   22098.25001157  .00021946  00000-0  13923-2 0  9997,2 49426  53.2175 175.0887 0001984  34.2048  50.0242 15.08850130 23615,6917.849,95.437,541.087,538.342,0.0
49426.0,STARLINK-3114,PAYLOAD,2022-04-08 14:00:03,15.08859768,0.0002233,53.2175,173.59400000000005,31.2804,64.6911,-0.0007722,-0.00012564,0.0,0 STARLINK-3114,1 49426U 21104U   22098.58336806 -.00012564  00000-0 -77220-3 0  9994,2 49426  53.2175 173.5940 0002233  31.2804  64.6911 15.08859768  3600,6917.82,95.436,541.23,538.14,0.0
49426.0,STARLINK-3114,PAYLOAD,2022-04-08 22:00:00,15.08852398,0.0002088,53.2174,172.0964,32.6365,74.8254,-0.0026341,-0.00041981,0.0,0 STARLINK-3114,1 49426U 21104U   22098.91667824 -.00041981  00000-0 -26341-2 0  9990,2 49426  53.2174 172.0964 0002088  32.6365  74.8254 15.08852398 23713,6917.842,95.437,541.1519999999998,538.263,0.0
49426.0,STARLINK-3114,PAYLOAD,2022-04-09 14:00:01,15.08813035,0.0002161,53.2174,169.1053,29.3218,101.3093,0.00023188,3.401e-05,0.0,0 STARLINK-3114,1 49426U 21104U   22099.58334491  .00003401  00000-0  23188-3 0  9995,2 49426  53.2174 169.1053 0002161  29.3218 101.3093 15.08813035  3609,6917.9630000000025,95.439,541.323,538.3330000000002,0.0
49426.0,STARLINK-3114,PAYLOAD,2022-04-09 16:00:00,15.08804963,0.0002171,53.217,168.7311,28.1224,195.4103,0.002396,0.00038014,0.0,0 STARLINK-3114,1 49426U 21104U   22099.66667824  .00038014  00000-0  23960-2 0  9998,2 49426  53.2170 168.7311 0002171  28.1224 195.4103 15.08804963 23824,6917.986999999999,95.44,541.354,538.351,0.0
49426.0,STARLINK-3114,PAYLOAD,2022-04-09 22:00:00,15.08826212,0.0001993,53.2171,167.6075,30.1974,112.0108,0.00016608,2.355e-05,0.0,0 STARLINK-3114,1 49426U 21104U   22099.91667824  .00002355  00000-0  16608-3 0  9997,2 49426  53.2171 167.6075 0001993  30.1974 112.0108 15.08826212  3601,6917.9230000000025,95.438,541.1659999999998,538.409,0.0
49426.0,STARLINK-3114,PAYLOAD,2022-04-10 14:00:01,15.08831011,0.0002209,53.2171,164.6166,30.3145,135.0712,0.0014524,0.00022897,0.0,0 STARLINK-3114,1 49426U 21104U   22100.58334491  .00022897  00000-0  14524-2 0  9991,2 49426  53.2171 164.6166 0002209  30.3145 135.0712 15.08831011 23962,6917.908,95.438,541.3009999999998,538.245,0.0
49426.0,STARLINK-3114,PAYLOAD,2022-04-10 22:00:00,15.08842678,0.0002101,53.2169,163.1186,33.8827,143.1207,0.00034663,5.233e-05,0.0,0 STARLINK-3114,1 49426U 21104U   22100.91667824  .00005233  00000-0  34663-3 0  9999,2 49426  53.2169 163.1186 0002101  33.8827 143.1207 15.08842678  3600,6917.871999999999,95.437,541.191,538.284,0.0
49426.0,STARLINK-3114,PAYLOAD,2022-04-11 14:00:01,15.08809782,0.0002372,53.217,160.1277,34.8554,165.3354,0.0012203,0.00019171,0.0,0 STARLINK-3114,1 49426U 21104U   22101.58334491  .00019171  00000-0  12203-2 0  9995,2 49426  53.2170 160.1277 0002372  34.8554 165.3354 15.08809782 24115,6917.973000000001,95.439,541.479,538.197,0.0
49426.0,STARLINK-3114,PAYLOAD,2022-04-11 22:00:00,15.08806144,0.0002171,53.2168,158.6296,35.2945,176.4703,0.00031118,4.663e-05,0.0,0 STARLINK-3114,1 49426U 21104U   22101.91667824  .00004663  00000-0  31118-3 0  9998,2 49426  53.2168 158.6296 0002171  35.2945 176.4703 15.08806144  3590,6917.984,95.44,541.351,538.347,0.0
49426.0,STARLINK-3114,PAYLOAD,2022-04-12 06:00:02,15.08823947,0.000221,53.217,157.1336,38.1097,185.2637,-0.00071283,-0.0001161,0.0,0 STARLINK-3114,1 49426U 21104U   22102.25002315 -.00011610  00000-0 -71283-3 0  9993,2 49426  53.2170 157.1336 0002210  38.1097 185.2637 15.08823947 24212,6917.929,95.439,541.323,538.266,0.0
49426.0,STARLINK-3114,PAYLOAD,2022-04-12 14:00:01,15.08792323,0.0002426,53.217,155.6389,34.1097,200.7745,0.0033397,0.00053196,0.0,0 STARLINK-3114,1 49426U 21104U   22102.58334491  .00053196  00000-0  33397-2 0  9998,2 49426  53.2170 155.6389 0002426  34.1097 200.7745 15.08792323  3615,6918.026,95.441,541.569,538.2130000000002,0.0
49426.0,STARLINK-3114,PAYLOAD,2022-04-12 22:00:00,15.08814794,0.0002265,53.2172,154.1407,36.3075,210.1422,0.00106,0.00016611,0.0,0 STARLINK-3114,1 49426U 21104U   22102.91667824  .00016611  00000-0  10600-2 0  9997,2 49426  53.2172 154.1407 0002265  36.3075 210.1422 15.08814794  3561,6917.956999999999,95.439,541.389,538.256,0.0
49426.0,STARLINK-3114,PAYLOAD,2022-04-13 04:00:00,15.08832469,0.0002285,53.2173,153.0184,39.6818,125.4414,0.00064529,9.995e-05,0.0,0 STARLINK-3114,1 49426U 21104U   22103.16667824  .00009995  00000-0  64529-3 0  9992,2 49426  53.2173 153.0184 0002285  39.6818 125.4414 15.08832469 24353,6917.903,95.438,541.349,538.188,0.0
49426.0,STARLINK-3114,PAYLOAD,2022-04-13 14:00:03,15.08815548,0.0002532,53.2172,151.1498,35.0017,234.7411,0.0033335,0.00053131,0.0,0 STARLINK-3114,1 49426U 21104U   22103.58336806  .00053131  00000-0  33335-2 0  9992,2 49426  53.2172 151.1498 0002532  35.0017 234.7411 15.08815548  3611,6917.955,95.439,541.572,538.069,0.0
49426.0,STARLINK-3114,PAYLOAD,2022-04-13 22:00:00,15.08836263,0.0002368,53.2174,149.6517,37.8242,243.3923,0.0018086,0.00028611,0.0,0 STARLINK-3114,1 49426U 21104U   22103.91667824  .00028611  00000-0  18086-2 0  9997,2 49426  53.2174 149.6517 0002368  37.8242 243.3923 15.08836263  3604,6917.892,95.438,541.395,538.119,0.0
49426.0,STARLINK-3114,PAYLOAD,2022-04-14 06:00:00,15.08867184,0.0002421,53.2174,148.1559,39.0164,253.791,-0.0012844,-0.00020688,0.0,0 STARLINK-3114,1 49426U 21104U   22104.25001157 -.00020688  00000-0 -12844-2 0  9990,2 49426  53.2174 148.1559 0002421  39.0164 253.7910 15.08867184 24511,6917.797,95.436,541.337,537.988,0.0
49426.0,STARLINK-3114,PAYLOAD,2022-04-14 14:00:01,15.08847643,0.0002563,53.2173,146.6607,34.8953,269.533,-5.9944e-05,-1.243e-05,0.0,0 STARLINK-3114,1 49426U 21104U   22104.58334491 -.00001243  00000-0 -59944-4 0  9996,2 49426  53.2173 146.6607 0002563  34.8953 269.5330 15.08847643  3597,6917.857,95.437,541.495,537.9490000000002,0.0
